[{"OBJECT_NAME":"IRIDIUM 107","OBJECT_ID":"2017-061F","EPOCH":"2026-03-09T22:26:14.574624","MEAN_MOTION":14.34217551,"ECCENTRICITY":0.00017516,"INCLINATION":86.3913,"RA_OF_ASC_NODE":66.7602,"ARG_OF_PERICENTER":87.4442,"MEAN_ANOMALY":272.6954,"EPHEMERIS_TYPE":0,"CLASSIFICATION_TYPE":"U","NORAD_CAT_ID":42960,"ELEMENT_SET_NO":999,"REV_AT_EPOCH":44059,"BSTAR":-3.536384e-6,"MEAN_MOTION_DOT":1.0e-7,"MEAN_MOTION_DDOT":0},{"OBJECT_NAME":"HEALTHSAT 1","OBJECT_ID":"1993-061E","EPOCH":"2026-03-09T17:44:06.863712","MEAN_MOTION":14.32505034,"ECCENTRICITY":0.00080688,"INCLINATION":98.6505,"RA_OF_ASC_NODE":137.4411,"ARG_OF_PERICENTER":326.1753,"MEAN_ANOMALY":147.9059,"EPHEMERIS_TYPE":0,"CLASSIFICATION_TYPE":"U","NORAD_CAT_ID":22827,"ELEMENT_SET_NO":999,"REV_AT_EPOCH":69385,"BSTAR":9.7207774e-5,"MEAN_MOTION_DOT":2.19e-6,"MEAN_MOTION_DDOT":0}]
